{"type": "FeatureCollection", "features": [ {"type": "Feature", "properties": {"norad_id": 42969, "name": "SENTINEL-5P", "group": "resource", "lat": -0.709588401582443, "lon": -84.3197607690344, "alt_km": 829.9414999151832, "timestamp": "2025-12-02T21:34:00.930682+00:00", "meta": {"OBJECT_NAME": "SENTINEL-5P", "OBJECT_ID": "2017-064A", "EPOCH": "2025-12-02T09:43:42.960576", "MEAN_MOTION": 14.19513219, "ECCENTRICITY": 9.44e-05, "INCLINATION": 98.7768, "RA_OF_ASC_NODE": 275.0819, "ARG_OF_PERICENTER": 85.6517, "MEAN_ANOMALY": 274.4767, "EPHEMERIS_TYPE": 0, "CLASSIFICATION_TYPE": "U", "NORAD_CAT_ID": 42969, "ELEMENT_SET_NO": 999, "REV_AT_EPOCH": 42164, "BSTAR": 7.6421e-05, "MEAN_MOTION_DOT": 1.17e-06, "MEAN_MOTION_DDOT": 0}, "tle": {"line1": "1 42969U 17064A   25336.40535834  .00000117  00000+0  76421-4 0  9991", "line2": "2 42969  98.7768 275.0819 0000944  85.6517 274.4767 14.19513219421648"}}, "geometry": {"type": "Point", "coordinates": [-84.3197607690344, -0.709588401582443]}}, {"type": "Feature", "properties": {"norad_id": 42987, "name": "SKYSAT-C11", "group": "resource", "lat": -78.17780100654201, "lon": 152.61775972013103, "alt_km": 434.0034620755305, "timestamp": "2025-12-02T21:34:00.930692+00:00", "meta": {"OBJECT_NAME": "SKYSAT-C11", "OBJECT_ID": "2017-068A", "EPOCH": "2025-12-02T07:56:32.315712", "MEAN_MOTION": 15.46785042, "ECCENTRICITY": 9.01e-05, "INCLINATION": 97.4132, "RA_OF_ASC_NODE": 113.5708, "ARG_OF_PERICENTER": 116.2054, "MEAN_ANOMALY": 243.9288, "EPHEMERIS_TYPE": 0, "CLASSIFICATION_TYPE": "U", "NORAD_CAT_ID": 42987, "ELEMENT_SET_NO": 999, "REV_AT_EPOCH": 45270, "BSTAR": 0.00052381, "MEAN_MOTION_DOT": 0.00026208, "MEAN_MOTION_DDOT": 0}, "tle": {"line1": "1 42987U 17068A   25336.33092958  .00026208  00000+0  52381-3 0  9999", "line2": "2 42987  97.4132 113.5708 0000901 116.2054 243.9288 15.46785042452708"}}, "geometry": {"type": "Point", "coordinates": [152.61775972013103, -78.17780100654201]}}, {"type": "Feature", "properties": {"norad_id": 42988, "name": "SKYSAT-C10", "group": "resource", "lat": 2.045031073766681, "lon": -72.00856696165876, "alt_km": 470.6987322244395, "timestamp": "2025-12-02T21:34:00.930702+00:00", "meta": {"OBJECT_NAME": "SKYSAT-C10", "OBJECT_ID": "2017-068B", "EPOCH": "2025-12-02T08:15:09.326016", "MEAN_MOTION": 15.3195516, "ECCENTRICITY": 0.0005465, "INCLINATION": 97.425, "RA_OF_ASC_NODE": 107.1686, "ARG_OF_PERICENTER": 123.3148, "MEAN_ANOMALY": 236.8617, "EPHEMERIS_TYPE": 0, "CLASSIFICATION_TYPE": "U", "NORAD_CAT_ID": 42988, "ELEMENT_SET_NO": 999, "REV_AT_EPOCH": 45220, "BSTAR": 0.00044463, "MEAN_MOTION_DOT": 0.00013655, "MEAN_MOTION_DDOT": 0}, "tle": {"line1": "1 42988U 17068B   25336.34385794  .00013655  00000+0  44463-3 0  9998", "line2": "2 42988  97.4250 107.1686 0005465 123.3148 236.8617 15.31955160452203"}}, "geometry": {"type": "Point", "coordinates": [-72.00856696165876, 2.045031073766681]}}, {"type": "Feature", "properties": {"norad_id": 42989, "name": "SKYSAT-C9", "group": "resource", "lat": -65.43641106050094, "lon": -89.48388339988223, "alt_km": 470.60728193119667, "timestamp": "2025-12-02T21:34:00.930712+00:00", "meta": {"OBJECT_NAME": "SKYSAT-C9", "OBJECT_ID": "2017-068C", "EPOCH": "2025-12-02T07:59:11.884416", "MEAN_MOTION": 15.35629577, "ECCENTRICITY": 0.0010632, "INCLINATION": 97.4179, "RA_OF_ASC_NODE": 106.5082, "ARG_OF_PERICENTER": 121.6479, "MEAN_ANOMALY": 238.5803, "EPHEMERIS_TYPE": 0, "CLASSIFICATION_TYPE": "U", "NORAD_CAT_ID": 42989, "ELEMENT_SET_NO": 999, "REV_AT_EPOCH": 45248, "BSTAR": 0.00047935, "MEAN_MOTION_DOT": 0.00016569, "MEAN_MOTION_DDOT": 0}, "tle": {"line1": "1 42989U 17068C   25336.33277644  .00016569  00000+0  47935-3 0  9996", "line2": "2 42989  97.4179 106.5082 0010632 121.6479 238.5803 15.35629577452487"}}, "geometry": {"type": "Point", "coordinates": [-89.48388339988223, -65.43641106050094]}}, {"type": "Feature", "properties": {"norad_id": 42990, "name": "SKYSAT-C8", "group": "resource", "lat": -32.87504556366007, "lon": 111.69505968750866, "alt_km": 473.468377005187, "timestamp": "2025-12-02T21:34:00.930722+00:00", "meta": {"OBJECT_NAME": "SKYSAT-C8", "OBJECT_ID": "2017-068D", "EPOCH": "2025-12-02T07:36:29.906784", "MEAN_MOTION": 15.32559128, "ECCENTRICITY": 0.0002193, "INCLINATION": 97.4271, "RA_OF_ASC_NODE": 106.275, "ARG_OF_PERICENTER": 23.0676, "MEAN_ANOMALY": 337.0664, "EPHEMERIS_TYPE": 0, "CLASSIFICATION_TYPE": "U", "NORAD_CAT_ID": 42990, "ELEMENT_SET_NO": 999, "REV_AT_EPOCH": 45211, "BSTAR": 0.00046305, "MEAN_MOTION_DOT": 0.00014492, "MEAN_MOTION_DDOT": 0}, "tle": {"line1": "1 42990U 17068D   25336.31701281  .00014492  00000+0  46305-3 0  9998", "line2": "2 42990  97.4271 106.2750 0002193  23.0676 337.0664 15.32559128452119"}}, "geometry": {"type": "Point", "coordinates": [111.69505968750866, -32.87504556366007]}}, {"type": "Feature", "properties": {"norad_id": 42991, "name": "SKYSAT-C7", "group": "resource", "lat": -23.321745528905108, "lon": -75.31654632509994, "alt_km": 477.8149789689287, "timestamp": "2025-12-02T21:34:00.930732+00:00", "meta": {"OBJECT_NAME": "SKYSAT-C7", "OBJECT_ID": "2017-068E", "EPOCH": "2025-12-02T08:08:29.512608", "MEAN_MOTION": 15.31968844, "ECCENTRICITY": 0.0007866, "INCLINATION": 97.4279, "RA_OF_ASC_NODE": 107.3469, "ARG_OF_PERICENTER": 89.4344, "MEAN_ANOMALY": 270.7799, "EPHEMERIS_TYPE": 0, "CLASSIFICATION_TYPE": "U", "NORAD_CAT_ID": 42991, "ELEMENT_SET_NO": 999, "REV_AT_EPOCH": 45218, "BSTAR": 0.00043643, "MEAN_MOTION_DOT": 0.00013413, "MEAN_MOTION_DDOT": 0}, "tle": {"line1": "1 42991U 17068E   25336.33923047  .00013413  00000+0  43643-3 0  9991", "line2": "2 42991  97.4279 107.3469 0007866  89.4344 270.7799 15.31968844452184"}}, "geometry": {"type": "Point", "coordinates": [-75.31654632509994, -23.321745528905108]}}, {"type": "Feature", "properties": {"norad_id": 42992, "name": "SKYSAT-C6", "group": "resource", "lat": -10.495400615576367, "lon": 109.7398504091948, "alt_km": 478.49010231359443, "timestamp": "2025-12-02T21:34:00.930742+00:00", "meta": {"OBJECT_NAME": "SKYSAT-C6", "OBJECT_ID": "2017-068F", "EPOCH": "2025-12-02T09:03:55.560096", "MEAN_MOTION": 15.311499, "ECCENTRICITY": 0.0005136, "INCLINATION": 97.4313, "RA_OF_ASC_NODE": 107.8324, "ARG_OF_PERICENTER": 111.9945, "MEAN_ANOMALY": 248.1842, "EPHEMERIS_TYPE": 0, "CLASSIFICATION_TYPE": "U", "NORAD_CAT_ID": 42992, "ELEMENT_SET_NO": 999, "REV_AT_EPOCH": 45217, "BSTAR": 0.00045944, "MEAN_MOTION_DOT": 0.00013762, "MEAN_MOTION_DDOT": 0}, "tle": {"line1": "1 42992U 17068F   25336.37772639  .00013762  00000+0  45944-3 0  9998", "line2": "2 42992  97.4313 107.8324 0005136 111.9945 248.1842 15.31149900452176"}}, "geometry": {"type": "Point", "coordinates": [109.7398504091948, -10.495400615576367]}}, {"type": "Feature", "properties": {"norad_id": 43111, "name": "CARTOSAT-2F", "group": "resource", "lat": 15.821044542132388, "lon": -143.1851790143843, "alt_km": 508.12260583641637, "timestamp": "2025-12-02T21:34:00.930754+00:00", "meta": {"OBJECT_NAME": "CARTOSAT-2F", "OBJECT_ID": "2018-004A", "EPOCH": "2025-12-01T21:08:16.196064", "MEAN_MOTION": 15.19324266, "ECCENTRICITY": 9.074e-05, "INCLINATION": 97.4331, "RA_OF_ASC_NODE": 33.6929, "ARG_OF_PERICENTER": 193.2914, "MEAN_ANOMALY": 166.8297, "EPHEMERIS_TYPE": 0, "CLASSIFICATION_TYPE": "U", "NORAD_CAT_ID": 43111, "ELEMENT_SET_NO": 999, "REV_AT_EPOCH": 43737, "BSTAR": 6.1441308e-05, "MEAN_MOTION_DOT": 1.23e-05, "MEAN_MOTION_DDOT": 0}, "tle": {"line1": "1 43111U 18004A   25335.88074301  .00001230  00000+0  61441-4 0  9997", "line2": "2 43111  97.4331  33.6929 0000907 193.2914 166.8297 15.19324266437378"}}, "geometry": {"type": "Point", "coordinates": [-143.1851790143843, 15.821044542132388]}}, {"type": "Feature", "properties": {"norad_id": 43259, "name": "GAOFEN-1 02", "group": "resource", "lat": 2.8954616757446567, "lon": 34.271693827474266, "alt_km": 643.3556179354791, "timestamp": "2025-12-02T21:34:00.930765+00:00", "meta": {"OBJECT_NAME": "GAOFEN-1 02", "OBJECT_ID": "2018-031A", "EPOCH": "2025-12-02T11:47:40.803936", "MEAN_MOTION": 14.76445262, "ECCENTRICITY": 0.0001278, "INCLINATION": 98.0821, "RA_OF_ASC_NODE": 34.2761, "ARG_OF_PERICENTER": 263.6328, "MEAN_ANOMALY": 96.4736, "EPHEMERIS_TYPE": 0, "CLASSIFICATION_TYPE": "U", "NORAD_CAT_ID": 43259, "ELEMENT_SET_NO": 999, "REV_AT_EPOCH": 41367, "BSTAR": 0.00020022, "MEAN_MOTION_DOT": 1.341e-05, "MEAN_MOTION_DDOT": 0}, "tle": {"line1": "1 43259U 18031A   25336.49144449  .00001341  00000+0  20022-3 0  9991", "line2": "2 43259  98.0821  34.2761 0001278 263.6328  96.4736 14.76445262413671"}}, "geometry": {"type": "Point", "coordinates": [34.271693827474266, 2.8954616757446567]}}, {"type": "Feature", "properties": {"norad_id": 43260, "name": "GAOFEN-1 03", "group": "resource", "lat": 59.36173088911068, "lon": -131.55862516620368, "alt_km": 635.8755259965037, "timestamp": "2025-12-02T21:34:00.930775+00:00", "meta": {"OBJECT_NAME": "GAOFEN-1 03", "OBJECT_ID": "2018-031B", "EPOCH": "2025-12-02T12:53:40.018272", "MEAN_MOTION": 14.76401888, "ECCENTRICITY": 0.0002687, "INCLINATION": 98.0813, "RA_OF_ASC_NODE": 34.2002, "ARG_OF_PERICENTER": 1.6022, "MEAN_ANOMALY": 358.5195, "EPHEMERIS_TYPE": 0, "CLASSIFICATION_TYPE": "U", "NORAD_CAT_ID": 43260, "ELEMENT_SET_NO": 999, "REV_AT_EPOCH": 41367, "BSTAR": 0.0002017, "MEAN_MOTION_DOT": 1.35e-05, "MEAN_MOTION_DDOT": 0}, "tle": {"line1": "1 43260U 18031B   25336.53726873  .00001350  00000+0  20170-3 0  9999", "line2": "2 43260  98.0813  34.2002 0002687   1.6022 358.5195 14.76401888413675"}}, "geometry": {"type": "Point", "coordinates": [-131.55862516620368, 59.36173088911068]}}]}